LEMUR-1                 
1 40044U 14033AL  26095.39126355  .00002883  00000+0  33812-3 0  9999
2 40044  97.7772 246.8688 0047548 318.1497  41.6086 14.84943994634661
LEMUR-2-GREENBERG       
1 42837U 17042N   26095.49936375  .00021535  00000+0  76307-3 0  9997
2 42837  97.3799 276.5924 0008075 259.8450 100.1880 15.29094313477270
LEMUR-2-ANDIS           
1 42838U 17042P   26095.48360405  .00028612  00000+0  92649-3 0  9992
2 42838  97.3673 276.5408 0008361 261.6475  98.3818 15.31955718477317
LEMUR-2-MONSON          
1 42839U 17042Q   26095.48735281  .00020404  00000+0  79419-3 0  9992
2 42839  97.4056 276.6521 0005845 245.2233 114.8398 15.26017830477073
LEMUR-2-FURIAUS         
1 42840U 17042R   26095.56773279  .00028544  00000+0  10538-2 0  9991
2 42840  97.3759 274.7884 0006816 321.0441  39.0307 15.27696873477112
LEMUR-2-PETERG          
1 42841U 17042S   26095.48780427  .00026814  00000+0  89321-3 0  9991
2 42841  97.3992 280.5641 0003428 226.5955 133.5001 15.31084099477301
LEMUR-2-DEMBITZ         
1 42842U 17042T   26095.53039569  .00023357  00000+0  85323-3 0  9999
2 42842  97.3817 277.7009 0005915 272.7431  87.3131 15.28092318477241
LEMUR-2-ZACHARY         
1 42845U 17042W   26095.49672683  .00048138  00000+0  10338-2 0  9994
2 42845  97.3650 285.8960 0003241 268.6775  91.4103 15.44542717477965
LEMUR-2-JIN-LUEN        
1 43182U 18014C   26095.54452206  .02032016  40095-2  19978-2 0  9992
2 43182  97.5374  28.7482 0010876 161.7624 198.4053 16.12308935449730
LEMUR-2-KADI            
1 43184U 18014E   26095.23380638  .00167383  00000+0  13338-2 0  9996
2 43184  97.4621  21.5585 0006381 123.2056 236.9819 15.70639509449543
LEMUR-2-AMANDA-SVANTE   
1 48269U 21034B   26095.47249887  .00038569  00000+0  13140-2 0  9991
2 48269  97.5792 172.0731 0004307 140.5639 219.5916 15.30273929269925
LEMUR-2-SPECIAL-K       
1 48273U 21034F   26095.48708590  .00108128  00000+0  19064-2 0  9998
2 48273  97.5674 178.0329 0002174 187.2944 172.8276 15.50016638270381
LEMUR-2-EMBRIONOVIS     
1 56970U 23084AQ  26095.33141083  .00021603  00000+0  62397-3 0  9990
2 56970  97.6186 236.8883 0008711 207.2282 152.8505 15.35646521156493
LEMUR-2-MANO            
1 57390U 23100E   26095.04248107  .00201176  00000+0  16107-2 0  9991
2 57390  99.4461 126.5031 0008599 189.3739 170.7358 15.70389943150600
LEMUR-2-DEVERILL-M-T    
1 57391U 23100F   26095.56299550  .00028972  00000+0  81649-3 0  9992
2 57391  99.4552 113.5691 0005425 283.5101  76.5532 15.36399859150083
LEMUR-2-BASS            
1 58259U 23174D   26095.20116151  .00022285  00000+0  54400-3 0  9999
2 58259  97.3853 179.0277 0008279  79.3692 280.8487 15.40833700134119
LEMUR-2-JK0903EM1407    
1 58336U 23174CJ  26095.50903618  .00029510  00000+0  56017-3 0  9994
2 58336  97.3894 184.1604 0004809  27.4522 332.6981 15.48243982134471
LEMUR-2-MJR092620       
1 58340U 23174CN  26095.49457969  .00015016  00000+0  34329-3 0  9998
2 58340  97.3961 184.3217 0007037  33.0309 327.1377 15.42905706134432
LEMUR-2-NIMBUS2000      
1 58899U 24022A   26095.57482568  .00019813  00000+0  53381-3 0  9990
2 58899  97.4191 304.7545 0009606  27.9586 332.2173 15.37821883121100
LEMUR-2-VALHALLA        
1 58900U 24022B   26095.55823018  .00019519  00000+0  53012-3 0  9994
2 58900  97.4188 304.7607 0010002  23.2896 336.8800 15.37573321121101
LEMUR-2-OBA-NI-JESU     
1 58902U 24022D   26095.58953874  .00153528  00000+0  11411-2 0  9998
2 58902  97.3988 315.1454 0002261 330.4076  29.7059 15.72368687121815
LEMUR-2-CAEL            
1 58903U 24022E   26095.56074156  .00020590  00000+0  53853-3 0  9993
2 58903  97.4171 305.5789 0007881   8.4508 351.6869 15.38745526121167
LEMUR-2-JOHNNYTRUONG    
1 59146U 24043BA  26095.37217501  .00047973  00000+0  70393-3 0  9990
2 59146  97.5309 242.8963 0004931  95.1752 265.0065 15.55372726116702
LEMUR-2-TOMATOKECHUP    
1 60471U 24149D   26095.17364249  .00016386  00000+0  49137-3 0  9996
2 60471  97.3807 177.1176 0003213 120.8626 239.2933 15.34550479 90966
LEMUR-2-STELLA          
1 60533U 24149BT  26095.50135125  .00016155  00000+0  98955-3 0  9997
2 60533  97.6743 177.7297 0000828 122.1614 237.9696 15.10265046 89526
LEMUR-2-MARHISYAM       
1 60536U 24149BW  26095.45704121  .00016017  00000+0  99416-3 0  9992
2 60536  97.6875 178.0561 0002102  46.0421 314.0981 15.09782823 89507
LEMUR-2-AHMED-ASRAR     
1 60576U 24149DN  26095.49159205  .00016199  00000+0  96897-3 0  9998
2 60576  97.7004 179.9139 0001361 200.2261 159.8915 15.11129783 89582
LEMUR-2-LLOYD           
1 60577U 24149DP  26095.47537223  .00014252  00000+0  93215-3 0  9996
2 60577  97.6761 176.6447 0004664  56.5891 303.5783 15.07879871 89438
LEMUR-2-SQUIRRELCOMM    
1 60578U 24149DQ  26095.53535777  .00007904  00000+0  54155-3 0  9992
2 60578  97.6721 176.7222 0004035 305.1374  54.9475 15.06323630 89462
LEMUR-2-SIERRINI        
1 60579U 24149DR  26095.46517073  .00015352  00000+0  96135-3 0  9994
2 60579  97.6842 177.8251 0006234  76.3862 283.8060 15.09456744 89484
LEMUR-2-WILSON          
1 62694U 25009CP  26095.47481566  .00003660  00000+0  34116-3 0  9998
2 62694  97.7036 175.2288 0001878 280.9133  79.1876 14.94849933 66491
LEMUR-2-STAR-FOX        
1 62696U 25009CR  26095.20886490  .00012737  00000+0  98870-3 0  9998
2 62696  97.6979 177.4274 0003340 107.7776 252.3813 15.01478559 66602
LEMUR-2-ARIANNA         
1 62699U 25009CU  26095.20428774  .00010792  00000+0  84038-3 0  9998
2 62699  97.6917 177.2643 0003939 100.0168 260.1501 15.01399753 66609
LEMUR-2-ALISIA          
1 62706U 25009DB  26095.46311066  .00011138  00000+0  86104-3 0  9991
2 62706  97.6932 178.1957 0005299 102.1542 258.0276 15.01665099 89242
LEMUR-2-ROUNDTRIPPER    
1 62711U 25009DG  26095.20337910  .00012137  00000+0  91379-3 0  9995
2 62711  97.7246 178.0612 0004748  50.0857 310.0784 15.02650887 66666
LEMUR-2-MYNAMEISJEFF    
1 62712U 25009DH  26095.20181440  .00011557  00000+0  87045-3 0  9991
2 62712  97.7286 178.3969 0004169  80.0524 280.1171 15.02651288 66663
LEMUR-2-LEIA-PHILIP     
1 63246U 25052AN  26095.42218171  .00007632  00000+0  66769-3 0  9997
2 63246  97.6903 348.5804 0004957 106.2776 253.8991 14.97003608 57785
LEMUR-2-LIA-MARTIN      
1 63248U 25052AQ  26095.24011730  .00007666  00000+0  66794-3 0  9996
2 63248  97.6963 348.7900 0004844  80.9928 279.1842 14.97160450 57767
LEMUR-2-DELOITTE-1      
1 63259U 25052BB  26095.61073404  .00005077  00000+0  44513-3 0  9994
2 63259  97.6996 349.4761 0002036  38.5088 321.6279 14.97085982 57836
LEMUR-2-EMERSONROSE     
1 63261U 25052BD  26095.45717335  .00006891  00000+0  57982-3 0  9996
2 63261  97.6986 349.7345 0001431  60.8050 299.3315 14.98561288 57846
LEMUR-2-MARACHE-FRAN    
1 63262U 25052BE  26095.60827469  .00007257  00000+0  59828-3 0  9992
2 63262  97.6982 350.1100 0001138 331.1841  28.9319 14.99334880 57885
LEMUR-2-THEFALCONER     
1 63264U 25052BG  26095.42658076  .00007220  00000+0  63437-3 0  9991
2 63264  97.6930 348.9918 0000954 210.8065 149.3101 14.96858635 57803
LEMUR-2-UNTITLED-SC     
1 63351U 25061A   26095.34954952  .00006289  00000+0  35868-3 0  9992
2 63351  97.5593  71.2963 0019743 151.7025 208.5283 15.12960530 56574
LEMUR-2-ESPERANZA       
1 63352U 25061B   26095.39714872  .00005684  00000+0  32387-3 0  9994
2 63352  97.5605  71.4205 0019416 150.4573 209.7760 15.13044672 56586
LEMUR-2-KREMPEL-BRO2    
1 63353U 25061C   26095.44471319  .00004951  00000+0  27912-3 0  9991
2 63353  97.5650  71.9085 0020595 143.4731 216.7909 15.13469200 56600
LEMUR-2-THERMORAPTOR    
1 63354U 25061D   26095.49637330  .00005378  00000+0  30234-3 0  9999
2 63354  97.5653  72.0222 0020270 142.5625 217.7023 15.13533806 56614
LEMUR-2-NEUROSPICY      
1 63355U 25061E   26095.47348934  .00006079  00000+0  34053-3 0  9999
2 63355  97.5584  71.6824 0017996 145.6506 214.5892 15.13649390 56619
LEMUR-2-TILLINFINITY    
1 63356U 25061F   26095.40471968  .00006252  00000+0  34420-3 0  9998
2 63356  97.5571  71.8537 0019522 134.9973 225.2845 15.14228192 56627
LEMUR-2-KREMPEL-BRO1    
1 63357U 25061G   26095.43512918  .00005274  00000+0  29239-3 0  9998
2 63357  97.5568  71.8199 0020209 136.1351 224.1489 15.14045253 56623
LEMUR-2-LANGER2SPACE    
1 63358U 25061H   26095.44712384  .00005159  00000+0  28884-3 0  9996
2 63358  97.5575  71.6750 0017988 143.8099 216.4353 15.13742200 56615
LEMUR-2-BALTO           
1 63395U 25052BH  26095.52718867  .00008732  00000+0  71810-3 0  9995
2 63395  97.6984 350.0192 0000713  90.9094 269.2211 14.99368946 57872
LEMUR-2-KRISH           
1 64561U 25135AK  26095.56271988  .00007352  00000+0  66821-3 0  9998
2 64561  97.7651 211.0208 0001136  95.7978 264.3373 14.95531958 43060
LEMUR-2-HUBBLE-4        
1 64565U 25135AP  26095.56289607  .00002504  00000+0  24629-3 0  9993
2 64565  97.7602 210.3886 0003270 146.9749 213.1676 14.92997724 43039
LEMUR-2-SEJONG-2        
1 64586U 25135BL  26095.55116480  .00005453  00000+0  49012-3 0  9992
2 64586  97.7599 211.1458 0004176 190.4673 169.6461 14.96081170 43082
LEMUR-2-HUBBLE-5        
1 64840U 25135BT  26095.28875270  .00003014  00000+0  28861-3 0  9994
2 64840  97.7624 210.6438 0004894 207.2871 152.8092 14.93914289 43021
LEMUR-2-KARENDARRELL    
1 64841U 25135BU  26095.58662752  .00012762  00000+0  10541-2 0  9992
2 64841  97.7608 211.9859 0008711 111.5551 248.6601 14.99071342 43131
LEMUR-2-LUCILLE-ROSE    
1 65403U 25135BV  26095.29475964  .00011701  00000+0  96580-3 0  9992
2 65403  97.7645 211.6803 0010251 155.5548 204.6162 14.99108450 37711
LEMUR-2-AFFIE-WAUWIE    
1 66295U 25248C   26095.19274116  .00022990  00000+0  91811-3 0  9996
2 66295  45.4002 149.7215 0007892  17.4572 342.6587 15.24807376 23447
LEMUR-2-DEANANDMAEVE    
1 66678U 25276N   26095.14030434  .00009679  00000+0  46781-3 0  9995
2 66678  97.4245 169.8682 0004547 246.7754 113.3002 15.18819782 19326
